{
  "norad_id": 66824,
  "name": "STARLINK-35896",
  "history": [
    {
      "epoch": "2026-04-11T16:03:06.537024Z",
      "apogee_km": 574.2263060720697,
      "perigee_km": 569.9672028273435,
      "latitude_deg": -2.6143037067362214e-05,
      "longitude_deg": 170.7300499936269,
      "height_km": 574.9833444460352,
      "semi_major_axis_km": 6950.233754449707,
      "eccentricity": 0.0003064,
      "inclination_deg": 70.0026,
      "raan_deg": 251.3923,
      "arg_perigee_deg": 257.5556,
      "mean_anomaly_deg": 102.526,
      "mean_motion_rev_day": 14.98316786
    },
    {
      "epoch": "2026-04-13T00:00:02.000160Z",
      "apogee_km": 574.1197072501272,
      "perigee_km": 569.8095322296303,
      "latitude_deg": -20.300265825409113,
      "longitude_deg": 39.14052615931569,
      "height_km": 578.2567740331244,
      "semi_major_axis_km": 6950.1016197398785,
      "eccentricity": 0.00031008,
      "inclination_deg": 70.0002,
      "raan_deg": 248.0411,
      "arg_perigee_deg": 273.0328,
      "mean_anomaly_deg": 65.5012,
      "mean_motion_rev_day": 14.98359515
    },
    {
      "epoch": "2026-04-14T19:21:25.043040Z",
      "apogee_km": 574.2346777205985,
      "perigee_km": 569.8296605012156,
      "latitude_deg": 7.069627245652502e-06,
      "longitude_deg": 110.14728216572283,
      "height_km": 574.4896681130336,
      "semi_major_axis_km": 6950.169169110906,
      "eccentricity": 0.0003169,
      "inclination_deg": 70.0008,
      "raan_deg": 243.4793,
      "arg_perigee_deg": 269.2245,
      "mean_anomaly_deg": 90.8551,
      "mean_motion_rev_day": 14.98337671
    },
    {
      "epoch": "2026-04-15T19:23:23.906112Z",
      "apogee_km": 574.1049565812737,
      "perigee_km": 569.7875648597137,
      "latitude_deg": -1.7122318480895647e-05,
      "longitude_deg": 106.13871156065991,
      "height_km": 574.4099396766899,
      "semi_major_axis_km": 6950.083260720494,
      "eccentricity": 0.0003106,
      "inclination_deg": 70.0014,
      "raan_deg": 240.953,
      "arg_perigee_deg": 269.0451,
      "mean_anomaly_deg": 91.0352,
      "mean_motion_rev_day": 14.98365452
    },
    {
      "epoch": "2026-04-16T14:37:01.615008Z",
      "apogee_km": 573.9140534973812,
      "perigee_km": 570.2054285163804,
      "latitude_deg": 1.6000892960897692e-05,
      "longitude_deg": 174.92217404788886,
      "height_km": 574.6692148230483,
      "semi_major_axis_km": 6950.196741006881,
      "eccentricity": 0.0002668,
      "inclination_deg": 70.0033,
      "raan_deg": 238.9332,
      "arg_perigee_deg": 264.364,
      "mean_anomaly_deg": 95.7215,
      "mean_motion_rev_day": 14.98328755
    },
    {
      "epoch": "2026-04-17T17:51:19.221408Z",
      "apogee_km": 574.3310727033568,
      "perigee_km": 569.8201067241289,
      "latitude_deg": -1.4717846262438031e-05,
      "longitude_deg": 122.36977041923011,
      "height_km": 574.4908114018765,
      "semi_major_axis_km": 6950.212589713743,
      "eccentricity": 0.00032452,
      "inclination_deg": 70.0017,
      "raan_deg": 236.0728,
      "arg_perigee_deg": 270.3197,
      "mean_anomaly_deg": 89.759,
      "mean_motion_rev_day": 14.9832363
    },
    {
      "epoch": "2026-04-18T14:41:04.869024Z",
      "apogee_km": 574.205360409167,
      "perigee_km": 569.9198673272558,
      "latitude_deg": 1.259261041586564e-05,
      "longitude_deg": 166.88475132853085,
      "height_km": 574.5435486884411,
      "semi_major_axis_km": 6950.199613868212,
      "eccentricity": 0.0003083,
      "inclination_deg": 70.0022,
      "raan_deg": 233.8834,
      "arg_perigee_deg": 268.5763,
      "mean_anomaly_deg": 91.5043,
      "mean_motion_rev_day": 14.98327826
    },
    {
      "epoch": "2026-04-19T14:43:05.924064Z",
      "apogee_km": 574.342138048155,
      "perigee_km": 569.7327823461519,
      "latitude_deg": -5.991820671830166e-06,
      "longitude_deg": 162.8697218638432,
      "height_km": 574.4418587960795,
      "semi_major_axis_km": 6950.174460197153,
      "eccentricity": 0.0003316,
      "inclination_deg": 70.0021,
      "raan_deg": 231.3598,
      "arg_perigee_deg": 270.5846,
      "mean_anomaly_deg": 89.4933,
      "mean_motion_rev_day": 14.9833596
    },
    {
      "epoch": "2026-04-20T14:45:06.325920Z",
      "apogee_km": 574.3425794313989,
      "perigee_km": 569.6718045286216,
      "latitude_deg": -1.659425181580399e-06,
      "longitude_deg": 158.85652867398682,
      "height_km": 574.4033310823559,
      "semi_major_axis_km": 6950.14419198001,
      "eccentricity": 0.00033602,
      "inclination_deg": 70.0021,
      "raan_deg": 228.8353,
      "arg_perigee_deg": 270.7808,
      "mean_anomaly_deg": 89.2966,
      "mean_motion_rev_day": 14.98345748
    },
    {
      "epoch": "2026-04-21T09:58:42.710304Z",
      "apogee_km": 574.402635621499,
      "perigee_km": 569.6277420647193,
      "latitude_deg": -4.232641098786361e-05,
      "longitude_deg": -132.35410511360567,
      "height_km": 574.4033597394442,
      "semi_major_axis_km": 6950.152188843109,
      "eccentricity": 0.00034351,
      "inclination_deg": 70.0017,
      "raan_deg": 226.8159,
      "arg_perigee_deg": 270.956,
      "mean_anomaly_deg": 89.1205,
      "mean_motion_rev_day": 14.98343162
    },
    {
      "epoch": "2026-04-22T13:12:59.636736Z",
      "apogee_km": 574.0075530341946,
      "perigee_km": 570.0422076749765,
      "latitude_deg": -1.4390587422037937e-05,
      "longitude_deg": 175.09454897641524,
      "height_km": 574.463100676274,
      "semi_major_axis_km": 6950.161880354585,
      "eccentricity": 0.00028527,
      "inclination_deg": 70.0026,
      "raan_deg": 223.9537,
      "arg_perigee_deg": 269.6904,
      "mean_anomaly_deg": 90.3928,
      "mean_motion_rev_day": 14.98340028
    },
    {
      "epoch": "2026-04-23T13:15:00.896544Z",
      "apogee_km": 574.3666379028391,
      "perigee_km": 569.7207201261454,
      "latitude_deg": -8.36770840405429e-06,
      "longitude_deg": 171.07877158385742,
      "height_km": 574.5076246862237,
      "semi_major_axis_km": 6950.180679014492,
      "eccentricity": 0.00033423,
      "inclination_deg": 70.0021,
      "raan_deg": 221.4302,
      "arg_perigee_deg": 269.112,
      "mean_anomaly_deg": 90.9656,
      "mean_motion_rev_day": 14.98333949
    },
    {
      "epoch": "2026-04-24T16:29:17.930976Z",
      "apogee_km": 574.5053764546165,
      "perigee_km": 569.5638044538036,
      "latitude_deg": 2.9985679272754908e-05,
      "longitude_deg": 118.52757966442839,
      "height_km": 574.4849355744598,
      "semi_major_axis_km": 6950.17159045421,
      "eccentricity": 0.0003555,
      "inclination_deg": 70.002,
      "raan_deg": 218.5686,
      "arg_perigee_deg": 269.4849,
      "mean_anomaly_deg": 90.5903,
      "mean_motion_rev_day": 14.98336888
    }
  ]
}